{"type": "FeatureCollection", "features": [ {"type": "Feature", "properties": {"norad_id": 57401, "name": "TIANMU-1 09", "group": "weather", "lat": -24.242853920470772, "lon": -145.24663324787966, "alt_km": 489.83561679235936, "timestamp": "2025-12-14T22:38:40.403577+00:00", "meta": {"OBJECT_NAME": "TIANMU-1 09", "OBJECT_ID": "2023-101C", "EPOCH": "2025-12-14T09:10:52.031424", "MEAN_MOTION": 15.2811691, "ECCENTRICITY": 0.00067525, "INCLINATION": 97.2827, "RA_OF_ASC_NODE": 37.5065, "ARG_OF_PERICENTER": 79.3586, "MEAN_ANOMALY": 280.8414, "EPHEMERIS_TYPE": 0, "CLASSIFICATION_TYPE": "U", "NORAD_CAT_ID": 57401, "ELEMENT_SET_NO": 999, "REV_AT_EPOCH": 13340, "BSTAR": 0.00030032021, "MEAN_MOTION_DOT": 8.166e-05, "MEAN_MOTION_DDOT": 0}, "tle": {"line1": "1 57401U 23101C   25348.38254666  .00008166  00000+0  30032-3 0  9997", "line2": "2 57401  97.2827  37.5065 0006752  79.3586 280.8414 15.28116910133400"}}, "geometry": {"type": "Point", "coordinates": [-145.24663324787966, -24.242853920470772]}}, {"type": "Feature", "properties": {"norad_id": 57402, "name": "TIANMU-1 10", "group": "weather", "lat": 15.797870303009486, "lon": 36.83110547811836, "alt_km": 479.41311688728274, "timestamp": "2025-12-14T22:38:40.403587+00:00", "meta": {"OBJECT_NAME": "TIANMU-1 10", "OBJECT_ID": "2023-101D", "EPOCH": "2025-12-14T08:25:51.206304", "MEAN_MOTION": 15.28107952, "ECCENTRICITY": 0.0008488, "INCLINATION": 97.2907, "RA_OF_ASC_NODE": 38.3275, "ARG_OF_PERICENTER": 78.8407, "MEAN_ANOMALY": 281.3787, "EPHEMERIS_TYPE": 0, "CLASSIFICATION_TYPE": "U", "NORAD_CAT_ID": 57402, "ELEMENT_SET_NO": 999, "REV_AT_EPOCH": 13339, "BSTAR": 0.00032272028, "MEAN_MOTION_DOT": 8.782e-05, "MEAN_MOTION_DDOT": 0}, "tle": {"line1": "1 57402U 23101D   25348.35128711  .00008782  00000+0  32272-3 0  9998", "line2": "2 57402  97.2907  38.3275 0008488  78.8407 281.3787 15.28107952133399"}}, "geometry": {"type": "Point", "coordinates": [36.83110547811836, 15.797870303009486]}}, {"type": "Feature", "properties": {"norad_id": 57490, "name": "FENGYUN 3F", "group": "weather", "lat": 40.51737045226168, "lon": -115.27243325433311, "alt_km": 822.0782928395383, "timestamp": "2025-12-14T22:38:40.403597+00:00", "meta": {"OBJECT_NAME": "FENGYUN 3F", "OBJECT_ID": "2023-111A", "EPOCH": "2025-12-14T08:27:47.621664", "MEAN_MOTION": 14.19894058, "ECCENTRICITY": 6.783e-05, "INCLINATION": 98.7082, "RA_OF_ASC_NODE": 56.62, "ARG_OF_PERICENTER": 105.1481, "MEAN_ANOMALY": 254.9771, "EPHEMERIS_TYPE": 0, "CLASSIFICATION_TYPE": "U", "NORAD_CAT_ID": 57490, "ELEMENT_SET_NO": 999, "REV_AT_EPOCH": 12263, "BSTAR": 7.1303366e-05, "MEAN_MOTION_DOT": 1.08e-06, "MEAN_MOTION_DDOT": 0}, "tle": {"line1": "1 57490U 23111A   25348.35263451  .00000108  00000+0  71303-4 0  9990", "line2": "2 57490  98.7082  56.6200 0000678 105.1481 254.9771 14.19894058122639"}}, "geometry": {"type": "Point", "coordinates": [-115.27243325433311, 40.51737045226168]}}, {"type": "Feature", "properties": {"norad_id": 58584, "name": "ARKTIKA-M 2", "group": "weather", "lat": 55.58918139177662, "lon": -137.8466688194316, "alt_km": 32943.68242013784, "timestamp": "2025-12-14T22:38:40.403610+00:00", "meta": {"OBJECT_NAME": "ARKTIKA-M 2", "OBJECT_ID": "2023-198A", "EPOCH": "2025-12-08T20:10:13.977120", "MEAN_MOTION": 2.0060476, "ECCENTRICITY": 0.68646991, "INCLINATION": 63.2247, "RA_OF_ASC_NODE": 175.3152, "ARG_OF_PERICENTER": 268.1185, "MEAN_ANOMALY": 18.8267, "EPHEMERIS_TYPE": 0, "CLASSIFICATION_TYPE": "U", "NORAD_CAT_ID": 58584, "ELEMENT_SET_NO": 999, "REV_AT_EPOCH": 1450, "BSTAR": 0, "MEAN_MOTION_DOT": 1.66e-06, "MEAN_MOTION_DDOT": 0}, "tle": {"line1": "1 58584U 23198A   25342.84043955  .00000166  00000+0  00000+0 0  9998", "line2": "2 58584  63.2247 175.3152 6864699 268.1185  18.8267  2.00604760 14506"}}, "geometry": {"type": "Point", "coordinates": [-137.8466688194316, 55.58918139177662]}}, {"type": "Feature", "properties": {"norad_id": 58645, "name": "TIANMU-1 11", "group": "weather", "lat": 12.144859544877193, "lon": -169.87743056227606, "alt_km": 496.987599422373, "timestamp": "2025-12-14T22:38:40.403624+00:00", "meta": {"OBJECT_NAME": "TIANMU-1 11", "OBJECT_ID": "2023-205A", "EPOCH": "2025-12-14T07:44:04.357824", "MEAN_MOTION": 15.24626016, "ECCENTRICITY": 0.00077954, "INCLINATION": 97.3611, "RA_OF_ASC_NODE": 7.9179, "ARG_OF_PERICENTER": 303.8873, "MEAN_ANOMALY": 56.1622, "EPHEMERIS_TYPE": 0, "CLASSIFICATION_TYPE": "U", "NORAD_CAT_ID": 58645, "ELEMENT_SET_NO": 999, "REV_AT_EPOCH": 10933, "BSTAR": 0.00028785324, "MEAN_MOTION_DOT": 7.038e-05, "MEAN_MOTION_DDOT": 0}, "tle": {"line1": "1 58645U 23205A   25348.32227266  .00007038  00000+0  28785-3 0  9992", "line2": "2 58645  97.3611   7.9179 0007795 303.8873  56.1622 15.24626016109331"}}, "geometry": {"type": "Point", "coordinates": [-169.87743056227606, 12.144859544877193]}}, {"type": "Feature", "properties": {"norad_id": 58646, "name": "TIANMU-1 12", "group": "weather", "lat": 18.772951255953046, "lon": 5.815130807865234, "alt_km": 493.0828228978562, "timestamp": "2025-12-14T22:38:40.403635+00:00", "meta": {"OBJECT_NAME": "TIANMU-1 12", "OBJECT_ID": "2023-205B", "EPOCH": "2025-12-14T08:23:03.115968", "MEAN_MOTION": 15.24509282, "ECCENTRICITY": 0.00058234, "INCLINATION": 97.3598, "RA_OF_ASC_NODE": 7.7495, "ARG_OF_PERICENTER": 284.0529, "MEAN_ANOMALY": 76.0061, "EPHEMERIS_TYPE": 0, "CLASSIFICATION_TYPE": "U", "NORAD_CAT_ID": 58646, "ELEMENT_SET_NO": 999, "REV_AT_EPOCH": 10932, "BSTAR": 0.00031090947, "MEAN_MOTION_DOT": 7.579e-05, "MEAN_MOTION_DDOT": 0}, "tle": {"line1": "1 58646U 23205B   25348.34934162  .00007579  00000+0  31091-3 0  9999", "line2": "2 58646  97.3598   7.7495 0005823 284.0529  76.0061 15.24509282109325"}}, "geometry": {"type": "Point", "coordinates": [5.815130807865234, 18.772951255953046]}}, {"type": "Feature", "properties": {"norad_id": 58647, "name": "TIANMU-1 13", "group": "weather", "lat": -15.252279319821328, "lon": -173.48555120471994, "alt_km": 495.02952977681616, "timestamp": "2025-12-14T22:38:40.403647+00:00", "meta": {"OBJECT_NAME": "TIANMU-1 13", "OBJECT_ID": "2023-205C", "EPOCH": "2025-12-14T07:36:46.746144", "MEAN_MOTION": 15.24552275, "ECCENTRICITY": 0.00060353, "INCLINATION": 97.3626, "RA_OF_ASC_NODE": 7.9195, "ARG_OF_PERICENTER": 259.9446, "MEAN_ANOMALY": 100.1111, "EPHEMERIS_TYPE": 0, "CLASSIFICATION_TYPE": "U", "NORAD_CAT_ID": 58647, "ELEMENT_SET_NO": 999, "REV_AT_EPOCH": 10931, "BSTAR": 0.00029074074, "MEAN_MOTION_DOT": 7.092e-05, "MEAN_MOTION_DDOT": 0}, "tle": {"line1": "1 58647U 23205C   25348.31720771  .00007092  00000+0  29074-3 0  9994", "line2": "2 58647  97.3626   7.9195 0006035 259.9446 100.1111 15.24552275109316"}}, "geometry": {"type": "Point", "coordinates": [-173.48555120471994, -15.252279319821328]}}, {"type": "Feature", "properties": {"norad_id": 58648, "name": "TIANMU-1 14", "group": "weather", "lat": -72.2256300871115, "lon": 31.646155515944102, "alt_km": 495.1447066225646, "timestamp": "2025-12-14T22:38:40.403657+00:00", "meta": {"OBJECT_NAME": "TIANMU-1 14", "OBJECT_ID": "2023-205D", "EPOCH": "2025-12-14T08:47:24.846720", "MEAN_MOTION": 15.2453614, "ECCENTRICITY": 0.00068352, "INCLINATION": 97.3558, "RA_OF_ASC_NODE": 7.3149, "ARG_OF_PERICENTER": 265.5651, "MEAN_ANOMALY": 94.4806, "EPHEMERIS_TYPE": 0, "CLASSIFICATION_TYPE": "U", "NORAD_CAT_ID": 58648, "ELEMENT_SET_NO": 999, "REV_AT_EPOCH": 10932, "BSTAR": 0.00028477581, "MEAN_MOTION_DOT": 6.942e-05, "MEAN_MOTION_DDOT": 0}, "tle": {"line1": "1 58648U 23205D   25348.36625980  .00006942  00000+0  28478-3 0  9996", "line2": "2 58648  97.3558   7.3149 0006835 265.5651  94.4806 15.24536140109323"}}, "geometry": {"type": "Point", "coordinates": [31.646155515944102, -72.2256300871115]}}, {"type": "Feature", "properties": {"norad_id": 58660, "name": "TIANMU-1 19", "group": "weather", "lat": -27.524768247099992, "lon": -83.92810528344599, "alt_km": 485.64987185677273, "timestamp": "2025-12-14T22:38:40.403667+00:00", "meta": {"OBJECT_NAME": "TIANMU-1 19", "OBJECT_ID": "2023-208A", "EPOCH": "2025-12-14T07:35:30.911136", "MEAN_MOTION": 15.27888997, "ECCENTRICITY": 0.00041446, "INCLINATION": 97.4384, "RA_OF_ASC_NODE": 99.35, "ARG_OF_PERICENTER": 245.6207, "MEAN_ANOMALY": 114.46, "EPHEMERIS_TYPE": 0, "CLASSIFICATION_TYPE": "U", "NORAD_CAT_ID": 58660, "ELEMENT_SET_NO": 999, "REV_AT_EPOCH": 10906, "BSTAR": 0.00037995314, "MEAN_MOTION_DOT": 0.00010275, "MEAN_MOTION_DDOT": 0}, "tle": {"line1": "1 58660U 23208A   25348.31632999  .00010275  00000+0  37995-3 0  9994", "line2": "2 58660  97.4384  99.3500 0004144 245.6207 114.4600 15.27888997109063"}}, "geometry": {"type": "Point", "coordinates": [-83.92810528344599, -27.524768247099992]}}, {"type": "Feature", "properties": {"norad_id": 58661, "name": "TIANMU-1 20", "group": "weather", "lat": -67.44895903076912, "lon": 118.74778675263708, "alt_km": 482.2220926002783, "timestamp": "2025-12-14T22:38:40.403678+00:00", "meta": {"OBJECT_NAME": "TIANMU-1 20", "OBJECT_ID": "2023-208B", "EPOCH": "2025-12-14T07:14:18.549312", "MEAN_MOTION": 15.29079198, "ECCENTRICITY": 0.00063214, "INCLINATION": 97.4322, "RA_OF_ASC_NODE": 99.7844, "ARG_OF_PERICENTER": 259.3553, "MEAN_ANOMALY": 100.6975, "EPHEMERIS_TYPE": 0, "CLASSIFICATION_TYPE": "U", "NORAD_CAT_ID": 58661, "ELEMENT_SET_NO": 999, "REV_AT_EPOCH": 10913, "BSTAR": 0.00035553096, "MEAN_MOTION_DOT": 9.969e-05, "MEAN_MOTION_DDOT": 0}, "tle": {"line1": "1 58661U 23208B   25348.30160358  .00009969  00000+0  35553-3 0  9995", "line2": "2 58661  97.4322  99.7844 0006321 259.3553 100.6975 15.29079198109133"}}, "geometry": {"type": "Point", "coordinates": [118.74778675263708, -67.44895903076912]}}]}